GLOBALSTAR M075         
1 37192U 10054E   25150.43076765 -.00000067  00000+0  20765-3 0  9999
2 37192  51.9941 235.6015 0000449 129.6179 310.9443 12.62265363673609
GLOBALSTAR M073         
1 37193U 10054F   25150.52584682 -.00000116  00000+0 -66035-4 0  9999
2 37193  52.0031 149.1170 0000180 335.8776 176.3726 12.62271946675603
GLOBALSTAR M083         
1 37739U 11033A   25150.62240968 -.00000116  00000+0 -67629-4 0  9990
2 37739  51.9851  97.5769 0000324  62.9101 108.1470 12.62263486644994
GLOBALSTAR M088         
1 37740U 11033B   25150.81387541 -.00000094  00000+0  54566-4 0  9992
2 37740  52.0068   2.5224 0000913  84.2709 357.8517 12.62245277640208
GLOBALSTAR M091         
1 37741U 11033C   25150.73316591 -.00000089  00000+0  82236-4 0  9990
2 37741  52.0009 326.2710 0000928 117.7319 257.4811 12.62268191640982
GLOBALSTAR M085         
1 37742U 11033D   25150.65985352 -.00000077  00000+0  15186-3 0  9995
2 37742  51.9873 277.5473 0000791 136.1203 326.1775 12.62268722641488
GLOBALSTAR M081         
1 37743U 11033E   25150.68733010 -.00000082  00000+0  12376-3 0  9995
2 37743  51.9965 280.2416 0000606 138.9966 327.1801 12.62264206641631
GLOBALSTAR M089         
1 37744U 11033F   25150.65880409 -.00000071  00000+0  18384-3 0  9991
2 37744  51.9923 234.5580 0000301 100.3267  57.5789 12.62264265642476
